0 FENGYUN 1C DEB
1 38162U 99025ERK 13288.27001804  .00005175  00000-0  27312-2 0   760
2 38162 099.7920 083.4237 0269326 159.5590 074.9998 13.97404627210065
0 FENGYUN 1C DEB
1 38162U 99025ERK 13290.22843030  .00005171  00000-0  27298-2 0   773
2 38162 099.7940 085.5142 0269073 154.3251 207.1466 13.97425004210344
0 FENGYUN 1C DEB
1 38162U 99025ERK 13291.23083190  .00005163  00000-0  27324-2 0   780
2 38162 099.7929 086.5862 0267865 151.3721 210.2164 13.97435265210482
